OBJECT_NAME,OBJECT_ID,EPOCH,MEAN_MOTION,ECCENTRICITY,INCLINATION,RA_OF_ASC_NODE,ARG_OF_PERICENTER,MEAN_ANOMALY,EPHEMERIS_TYPE,CLASSIFICATION_TYPE,NORAD_CAT_ID,ELEMENT_SET_NO,REV_AT_EPOCH,BSTAR,MEAN_MOTION_DOT,MEAN_MOTION_DDOT
STARLINK-33784,2025-069W,2026-07-22T07:19:06.549024,15.34434148,.0000896,53.1593,237.2897,86.4759,273.6346,0,U,63453,999,7401,.69021019E-3,.23041E-3,0
STARLINK-33768,2025-069X,2026-07-22T19:05:31.905888,15.34403740,.00008984,53.1582,228.9627,96.4042,263.7063,0,U,63454,999,7416,.49401951E-3,.16353E-3,0
STARLINK-33761,2025-069Y,2026-07-22T18:38:16.365984,15.34383972,.00025098,53.1573,228.8408,73.2164,286.9114,0,U,63455,999,7417,.80084772E-3,.26765E-3,0
STARLINK-33737,2025-069Z,2026-07-22T10:55:20.565696,15.34407215,.00010313,53.1576,230.3850,49.4001,310.7091,0,U,63456,999,7401,.45746445E-3,.15115E-3,0
STARLINK-33795,2025-069AA,2026-07-22T19:11:36.530304,15.34377425,.00014048,53.1584,228.9965,90.3648,269.7516,0,U,63457,999,7406,.80565553E-3,.26922E-3,0
STARLINK-33756,2025-069AB,2026-07-22T07:59:53.159424,15.34345149,.00013072,53.1579,231.0507,62.4045,297.7090,0,U,63458,999,7410,.83160924E-3,.27776E-3,0
STARLINK-33780,2025-069AC,2026-07-22T08:11:59.150976,15.34413259,.00007561,53.1583,231.0992,133.7722,226.3343,0,U,63459,999,7399,.57455425E-3,.19094E-3,0
STARLINK-33679,2025-070A,2026-07-22T10:53:53.744928,15.27594669,.00025784,42.9985,219.0391,253.5648,106.4921,0,U,63460,999,7358,.61034585E-3,.16579E-3,0
STARLINK-33706,2025-070B,2026-07-22T10:59:27.541824,15.27606568,.00015971,42.9995,219.0367,282.3504,77.7168,0,U,63461,999,7358,.97354464E-3,.26646E-3,0
STARLINK-33691,2025-070C,2026-07-22T17:36:13.073760,15.27576587,.0000442,42.9964,216.7971,348.8303,11.2538,0,U,63462,999,7358,.59240259E-3,.16074E-3,0
STARLINK-33696,2025-070D,2026-07-22T10:22:26.207328,15.27608631,.00014717,43.0023,218.8471,285.3440,74.7249,0,U,63463,999,7358,.72907759E-3,.19872E-3,0
STARLINK-33701,2025-070E,2026-07-22T17:21:38.736000,15.27610648,.00008635,42.9984,217.5859,302.1612,57.9155,0,U,63464,999,7362,.10557505E-2,.28931E-3,0
STARLINK-33685,2025-070F,2026-07-22T09:04:55.831008,15.27583362,.00023097,43.0026,219.3016,271.2299,88.8288,0,U,63465,999,7357,.52349486E-3,.14173E-3,0
STARLINK-33654,2025-070G,2026-07-22T08:50:07.973376,15.27614737,.00021649,43.0012,219.2212,312.4968,47.5700,0,U,63466,999,7357,.54671846E-3,.14829E-3,0
STARLINK-33697,2025-070H,2026-07-22T18:18:46.061568,15.27610115,.00024283,43.0021,217.0376,272.1201,87.9373,0,U,63467,999,7363,.62935735E-3,.17113E-3,0
STARLINK-33720,2025-070J,2026-07-22T18:20:37.122720,15.27585486,.000194,43.0022,217.0342,278.7849,81.2783,0,U,63468,999,7363,.62442028E-3,.16963E-3,0
STARLINK-33587,2025-070K,2026-07-22T17:58:24.505536,15.27589605,.00023223,43.0007,216.9128,265.5966,94.4620,0,U,63469,999,7363,.86765358E-3,.23698E-3,0
STARLINK-33637,2025-070L,2026-07-22T17:27:10.636416,15.27579185,.00007809,42.9979,217.6127,311.2693,48.8091,0,U,63470,999,7362,.58330781E-3,.15823E-3,0
STARLINK-33744,2025-070M,2026-07-22T10:48:20.183040,15.27611819,.00017824,43.0004,218.9745,271.1980,88.8667,0,U,63471,999,7358,.71848782E-3,.19581E-3,0
STARLINK-33766,2025-070N,2026-07-22T11:01:17.703552,15.27592100,.00014437,42.9983,219.0445,274.8346,85.2341,0,U,63472,999,7358,.65827955E-3,.17903E-3,0
STARLINK-33765,2025-070P,2026-07-21T11:03:02.708064,15.27593436,.00019368,43.0021,224.4488,292.8283,67.2364,0,U,63473,999,7343,.3870392E-3,.10408E-3,0
STARLINK-33735,2025-070Q,2026-07-22T18:00:16.504128,15.27610392,.00029533,43.0009,216.9183,269.4691,90.5822,0,U,63474,999,7363,.91210459E-3,.24947E-3,0
STARLINK-33731,2025-070R,2026-07-22T17:23:28.478688,15.27577311,.0000889,42.9985,217.5931,286.7523,73.3231,0,U,63475,999,7362,.79194598E-3,.21593E-3,0
STARLINK-33718,2025-070S,2026-07-22T09:51:00.476352,15.27573104,.00019054,43.0018,218.6654,272.9288,87.1345,0,U,63476,999,7358,.89574671E-3,.24464E-3,0
STARLINK-33630,2025-070T,2026-07-21T10:39:40.885344,15.27582324,.00021647,43.0043,220.8423,277.6774,82.3831,0,U,63477,999,7347,.69287793E-3,.18855E-3,0
STARLINK-33695,2025-070U,2026-07-22T20:52:36.800832,15.27592237,.00014747,43.0024,212.6162,276.0595,84.0089,0,U,63478,999,7369,.37398304E-3,.10047E-3,0
STARLINK-33713,2025-070V,2026-07-22T17:49:51.305952,15.27580060,.00012741,43.0013,213.3822,277.0367,83.0340,0,U,63479,999,7367,.63760833E-3,.17325E-3,0
STARLINK-33721,2025-070W,2026-07-22T10:02:46.963104,15.27604538,.0001673,43.0022,215.2525,0.6630,359.4223,0,U,63480,999,7362,.71314785E-3,.19429E-3,0
STARLINK-33639,2025-070X,2026-07-22T10:30:32.154624,15.27585414,.0003002,43.0001,215.3926,249.6393,110.4136,0,U,63481,999,7362,.42554064E-3,.11469E-3,0
STARLINK-33688,2025-070Z,2026-07-22T09:06:46.306368,15.27599115,.00025248,43.0010,219.2862,260.5592,99.4974,0,U,63483,999,7357,.6336155E-3,.17225E-3,0
