{"epoch":1784799577,"count":18318,"objects":[{"id":"63453","name":"STARLINK-33784","type":"PAYLOAD","l1":"1 63453U 25069W   26203.30493691  .00023041  00000-0  69021-3 0  9992","l2":"2 63453  53.1593 237.2897 0000896  86.4759 273.6346 15.34434148 74019"},{"id":"63454","name":"STARLINK-33768","type":"PAYLOAD","l1":"1 63454U 25069X   26203.79550817  .00016353  00000-0  49402-3 0  9999","l2":"2 63454  53.1582 228.9627 0000898  96.4042 263.7063 15.34403740 74160"},{"id":"63455","name":"STARLINK-33761","type":"PAYLOAD","l1":"1 63455U 25069Y   26203.77657831  .00026765  00000-0  80085-3 0  9992","l2":"2 63455  53.1573 228.8408 0002510  73.2164 286.9114 15.34383972 74177"},{"id":"63456","name":"STARLINK-33737","type":"PAYLOAD","l1":"1 63456U 25069Z   26203.45509914  .00015115  00000-0  45746-3 0  9998","l2":"2 63456  53.1576 230.3850 0001031  49.4001 310.7091 15.34407215 74012"},{"id":"63457","name":"STARLINK-33795","type":"PAYLOAD","l1":"1 63457U 25069AA  26203.79972836  .00026922  00000-0  80566-3 0  9990","l2":"2 63457  53.1584 228.9965 0001405  90.3648 269.7516 15.34377425 74068"},{"id":"63458","name":"STARLINK-33756","type":"PAYLOAD","l1":"1 63458U 25069AB  26203.33325416  .00027776  00000-0  83161-3 0  9999","l2":"2 63458  53.1579 231.0507 0001307  62.4045 297.7090 15.34345149 74103"},{"id":"63459","name":"STARLINK-33780","type":"PAYLOAD","l1":"1 63459U 25069AC  26203.34165684  .00019094  00000-0  57455-3 0  9991","l2":"2 63459  53.1583 231.0992 0000756 133.7722 226.3343 15.34413259 73991"},{"id":"63460","name":"STARLINK-33679","type":"PAYLOAD","l1":"1 63460U 25070A   26203.45409427  .00016579  00000-0  61035-3 0  9997","l2":"2 63460  42.9985 219.0391 0002578 253.5648 106.4921 15.27594669 73588"},{"id":"63461","name":"STARLINK-33706","type":"PAYLOAD","l1":"1 63461U 25070B   26203.45795766  .00026646  00000-0  97354-3 0  9991","l2":"2 63461  42.9995 219.0367 0001597 282.3504  77.7168 15.27606568 73589"},{"id":"63462","name":"STARLINK-33691","type":"PAYLOAD","l1":"1 63462U 25070C   26203.73348465  .00016074  00000-0  59240-3 0  9999","l2":"2 63462  42.9964 216.7971 0000442 348.8303  11.2538 15.27576587 73585"},{"id":"63463","name":"STARLINK-33696","type":"PAYLOAD","l1":"1 63463U 25070D   26203.43224777  .00019872  00000-0  72908-3 0  9991","l2":"2 63463  43.0023 218.8471 0001472 285.3440  74.7249 15.27608631 73582"},{"id":"63464","name":"STARLINK-33701","type":"PAYLOAD","l1":"1 63464U 25070E   26203.72336500  .00028931  00000-0  10558-2 0  9990","l2":"2 63464  42.9984 217.5859 0000863 302.1612  57.9155 15.27610648 73620"},{"id":"63465","name":"STARLINK-33685","type":"PAYLOAD","l1":"1 63465U 25070F   26203.37842397  .00014173  00000-0  52349-3 0  9996","l2":"2 63465  43.0026 219.3016 0002310 271.2299  88.8288 15.27583362 73577"},{"id":"63466","name":"STARLINK-33654","type":"PAYLOAD","l1":"1 63466U 25070G   26203.36814784  .00014829  00000-0  54672-3 0  9994","l2":"2 63466  43.0012 219.2212 0002165 312.4968  47.5700 15.27614737 73571"},{"id":"63467","name":"STARLINK-33697","type":"PAYLOAD","l1":"1 63467U 25070H   26203.76303312  .00017113  00000-0  62936-3 0  9990","l2":"2 63467  43.0021 217.0376 0002428 272.1201  87.9373 15.27610115 73630"},{"id":"63468","name":"STARLINK-33720","type":"PAYLOAD","l1":"1 63468U 25070J   26203.76431855  .00016963  00000-0  62442-3 0  9999","l2":"2 63468  43.0022 217.0342 0001940 278.7849  81.2783 15.27585486 73637"},{"id":"63469","name":"STARLINK-33587","type":"PAYLOAD","l1":"1 63469U 25070K   26203.74889474  .00023698  00000-0  86765-3 0  9999","l2":"2 63469  43.0007 216.9128 0002322 265.5966  94.4620 15.27589605 73633"},{"id":"63470","name":"STARLINK-33637","type":"PAYLOAD","l1":"1 63470U 25070L   26203.72720644  .00015823  00000-0  58331-3 0  9991","l2":"2 63470  42.9979 217.6127 0000781 311.2693  48.8091 15.27579185 73627"},{"id":"63471","name":"STARLINK-33744","type":"PAYLOAD","l1":"1 63471U 25070M   26203.45023360  .00019581  00000-0  71849-3 0  9997","l2":"2 63471  43.0004 218.9745 0001782 271.1980  88.8667 15.27611819 73583"},{"id":"63472","name":"STARLINK-33766","type":"PAYLOAD","l1":"1 63472U 25070N   26203.45923268  .00017903  00000-0  65828-3 0  9990","l2":"2 63472  42.9983 219.0445 0001444 274.8346  85.2341 15.27592100 73589"},{"id":"63473","name":"STARLINK-33765","type":"PAYLOAD","l1":"1 63473U 25070P   26202.46044801  .00010408  00000-0  38704-3 0  9994","l2":"2 63473  43.0021 224.4488 0001937 292.8283  67.2364 15.27593436 73431"},{"id":"63474","name":"STARLINK-33735","type":"PAYLOAD","l1":"1 63474U 25070Q   26203.75019102  .00024947  00000-0  91210-3 0  9998","l2":"2 63474  43.0009 216.9183 0002953 269.4691  90.5822 15.27610392 73639"},{"id":"63475","name":"STARLINK-33731","type":"PAYLOAD","l1":"1 63475U 25070R   26203.72463517  .00021593  00000-0  79195-3 0  9991","l2":"2 63475  42.9985 217.5931 0000889 286.7523  73.3231 15.27577311 73626"},{"id":"63476","name":"STARLINK-33718","type":"PAYLOAD","l1":"1 63476U 25070S   26203.41042218  .00024464  00000-0  89575-3 0  9992","l2":"2 63476  43.0018 218.6654 0001905 272.9288  87.1345 15.27573104 73585"},{"id":"63477","name":"STARLINK-33630","type":"PAYLOAD","l1":"1 63477U 25070T   26202.44422321  .00018855  00000-0  69288-3 0  9998","l2":"2 63477  43.0043 220.8423 0002165 277.6774  82.3831 15.27582324 73473"},{"id":"63478","name":"STARLINK-33695","type":"PAYLOAD","l1":"1 63478U 25070U   26203.86987038  .00010047  00000-0  37398-3 0  9999","l2":"2 63478  43.0024 212.6162 0001475 276.0595  84.0089 15.27592237 73691"},{"id":"63479","name":"STARLINK-33713","type":"PAYLOAD","l1":"1 63479U 25070V   26203.74295493  .00017325  00000-0  63761-3 0  9993","l2":"2 63479  43.0013 213.3822 0001274 277.0367  83.0340 15.27580060 73674"},{"id":"63480","name":"STARLINK-33721","type":"PAYLOAD","l1":"1 63480U 25070W   26203.41859911  .00019429  00000-0  71315-3 0  9991","l2":"2 63480  43.0022 215.2525 0001673   0.6630 359.4223 15.27604538 73625"},{"id":"63481","name":"STARLINK-33639","type":"PAYLOAD","l1":"1 63481U 25070X   26203.43787216  .00011469  00000-0  42554-3 0  9991","l2":"2 63481  43.0001 215.3926 0003002 249.6393 110.4136 15.27585414 73627"},{"id":"63483","name":"STARLINK-33688","type":"PAYLOAD","l1":"1 63483U 25070Z   26203.37970262  .00017225  00000-0  63362-3 0  9997","l2":"2 63483  43.0010 219.2862 0002525 260.5592  99.4974 15.27599115 73576"}]}